     2.100          NAVIGATION                              RINEX VERSION / TYPE
fic2rin                                 01/20/2018 00:12:04 PGM / RUN BY / DATE
                                                            END OF HEADER
21 18  1 19 22  0  0.0 -.439940951765D-03  .420641299570D-11  .000000000000D+00
     .127000000000D+03 -.112125000000D+03  .480841457548D-08  .180347766636D+01
    -.631809234619D-05  .243080074433D-01  .416859984398D-05  .515378496361D+04
     .511200000000D+06  .298023223877D-06 -.420382044360D+00 -.502914190292D-06
     .942633707449D+00  .289062500000D+03 -.160597331553D+01 -.821248494010D-08
    -.266082511976D-09  .100000000000D+01  .198400000000D+04  .000000000000D+00
     .240000000000D+01  .000000000000D+00 -.102445483208D-07  .127000000000D+03
     .504006000000D+06  .400000000000D+01
22 18  1 19 22  0  0.0 -.262615270913D-03 -.129602995003D-10  .000000000000D+00
     .290000000000D+02 -.429062500000D+02  .504985320380D-08 -.124501878958D+01
    -.204890966415D-05  .721095094923D-02  .118333846331D-04  .515361833954D+04
     .511200000000D+06 -.596046447754D-07  .617726970762D+00  .180676579475D-06
     .924789433558D+00  .131968750000D+03 -.162804353405D+01 -.827355891265D-08
     .325370695853D-09  .100000000000D+01  .198400000000D+04  .000000000000D+00
     .240000000000D+01  .000000000000D+00 -.176951289177D-07  .290000000000D+02
     .504006000000D+06  .400000000000D+01
23 18  1 19 22  0  0.0 -.219072680920D-03  .000000000000D+00  .000000000000D+00
     .560000000000D+02  .279062500000D+02  .524200406480D-08 -.193838472541D+01
     .121258199215D-05  .119124142220D-01  .555813312531D-05  .515360281754D+04
     .511200000000D+06  .156462192535D-06  .170685443174D+01 -.949949026108D-07
     .943290591314D+00  .258718750000D+03 -.240413828016D+01 -.823891461244D-08
     .540379651839D-09  .100000000000D+01  .198400000000D+04  .000000000000D+00
     .240000000000D+01  .000000000000D+00 -.200234353542D-07  .560000000000D+02
     .504006000000D+06  .400000000000D+01
24 18  1 19 22  0  0.0 -.449866056442D-04 -.454747350886D-12  .000000000000D+00
     .750000000000D+02 -.324375000000D+02  .516057210140D-08 -.251068789817D+01
    -.180862843990D-05  .670406664722D-02  .746734440327D-05  .515365791321D+04
     .511200000000D+06  .111758708954D-07  .272808816163D+01 -.195577740669D-06
     .942955063738D+00  .226218750000D+03  .510271914713D+00 -.827748764773D-08
    -.421088968617D-09  .100000000000D+01  .198400000000D+04  .000000000000D+00
     .240000000000D+01  .000000000000D+00  .279396772385D-08  .750000000000D+02
     .504006000000D+06  .400000000000D+01
25 18  1 19 22  0  0.0 -.525044277310D-03 -.613908923697D-11  .000000000000D+00
     .260000000000D+02  .761562500000D+02  .392159192147D-08  .181164512922D+01
     .392645597458D-05  .701390346512D-02  .106319785118D-04  .515370589638D+04
     .511200000000D+06 -.175088644028D-06 -.246663501387D+01 -.298023223877D-07
     .975658505236D+00  .182937500000D+03  .803306166389D+00 -.771103548129D-08
    -.607168148133D-10  .100000000000D+01  .198400000000D+04  .000000000000D+00
     .240000000000D+01  .000000000000D+00  .558793544769D-08  .260000000000D+02
     .504006000000D+06  .400000000000D+01
26 18  1 19 22  0  0.0 -.281319953501D-03  .138697942020D-10  .000000000000D+00
     .930000000000D+02  .815312500000D+02  .439268297288D-08  .132892375675D+01
     .442750751972D-05  .257722730748D-02  .105202198029D-04  .515360292435D+04
     .511200000000D+06  .502914190292D-07 -.248627860678D+01  .000000000000D+00
     .957282320183D+00  .171656250000D+03 -.270411702590D-01 -.794033074665D-08
    -.160720980388D-09  .100000000000D+01  .198400000000D+04  .000000000000D+00
     .240000000000D+01  .000000000000D+00  .745058059692D-08  .930000000000D+02
     .504006000000D+06  .400000000000D+01
27 18  1 19 22  0  0.0  .363423954695D-03  .193267624127D-11  .000000000000D+00
     .260000000000D+02  .587500000000D+02  .440196907397D-08 -.515926041888D+00
     .296905636787D-05  .534877763130D-02  .263005495071D-05  .515367619896D+04
     .511200000000D+06  .121071934700D-06 -.142682625910D+01  .335276126862D-07
     .976374253998D+00  .337218750000D+03  .352053359933D+00 -.834284751309D-08
     .124648049234D-09  .100000000000D+01  .198400000000D+04  .000000000000D+00
     .240000000000D+01  .000000000000D+00  .186264514923D-08  .260000000000D+02
     .504006000000D+06  .400000000000D+01
28 18  1 19 22  0  0.0  .681305304170D-03  .341060513165D-11  .000000000000D+00
     .330000000000D+02  .724062500000D+02  .379872966091D-08  .301836809698D+00
     .387057662010D-05  .198606299236D-01  .111330300570D-04  .515367640305D+04
     .511200000000D+06 -.255182385445D-06 -.238524319660D+01 -.113621354103D-06
     .987167404651D+00  .184500000000D+03 -.153081733872D+01 -.800390482333D-08
    -.928610108910D-10  .100000000000D+01  .198400000000D+04  .000000000000D+00
     .240000000000D+01  .000000000000D+00 -.111758708954D-07  .330000000000D+02
     .504006000000D+06  .400000000000D+01
29 18  1 19 22  0  0.0  .508741475642D-03 -.545696821064D-11  .000000000000D+00
     .240000000000D+02  .521875000000D+02  .420553232016D-08  .830259937533D+00
     .263378024101D-05  .451264670119D-03  .248663127422D-05  .515374826431D+04
     .511200000000D+06 -.167638063431D-07 -.136303376911D+01  .353902578354D-07
     .982798668984D+00  .342656250000D+03  .753878466933D+00 -.815569686037D-08
     .106433004790D-09  .100000000000D+01  .198400000000D+04  .000000000000D+00
     .240000000000D+01  .000000000000D+00 -.102445483208D-07  .240000000000D+02
     .504006000000D+06  .400000000000D+01
30 18  1 19 22  0  0.0  .111105386168D-03 -.329691829393D-11  .000000000000D+00
     .220000000000D+02 -.259375000000D+02  .512021327744D-08  .296919290596D+01
    -.128708779812D-05  .303220434580D-02  .772066414356D-05  .515357621002D+04
     .511200000000D+06 -.372529029846D-07  .282104712293D+01 -.186264514923D-07
     .945627570761D+00  .224906250000D+03 -.310367538815D+01 -.822069956799D-08
    -.480019994760D-09  .100000000000D+01  .198400000000D+04  .000000000000D+00
     .240000000000D+01  .000000000000D+00  .372529029846D-08  .220000000000D+02
     .504006000000D+06  .400000000000D+01
31 18  1 19 22  0  0.0  .147506128997D-03 -.261479726760D-11  .000000000000D+00
     .490000000000D+02 -.243125000000D+02  .463055002385D-08  .262744053739D+01
    -.114366412163D-05  .884291995317D-02  .844337046146D-05  .515359230042D+04
     .511200000000D+06 -.152736902237D-06  .279755199149D+01  .150874257088D-06
     .964652734070D+00  .220812500000D+03 -.170254613799D+00 -.788997150613D-08
    -.531093550750D-09  .100000000000D+01  .198400000000D+04  .000000000000D+00
     .240000000000D+01  .000000000000D+00 -.135041773319D-07  .490000000000D+02
     .504006000000D+06  .400000000000D+01
32 18  1 19 22  0  0.0 -.532968435436D-03 -.227373675443D-12  .000000000000D+00
     .700000000000D+02  .290000000000D+02  .505021036153D-08  .222729693037D+00
     .149570405483D-05  .159833277576D-02  .566616654396D-05  .515361919403D+04
     .511200000000D+06 -.186264514923D-08  .171163108163D+01  .279396772385D-07
     .956868905385D+00  .269531250000D+03 -.270312391226D+01 -.829034532616D-08
     .346085844436D-09  .100000000000D+01  .198400000000D+04  .000000000000D+00
     .240000000000D+01  .000000000000D+00  .465661287308D-09  .700000000000D+02
     .504006000000D+06  .400000000000D+01
26 18  1 19 21 59 44.0 -.281319953501D-03  .138697942020D-10  .000000000000D+00
     .290000000000D+02  .815312500000D+02  .439268297288D-08  .132658718545D+01
     .442750751972D-05  .257722334936D-02  .105202198029D-04  .515360291862D+04
     .511184000000D+06  .502914190292D-07 -.248627848974D+01  .000000000000D+00
     .957282318720D+00  .171656250000D+03 -.270383936405D-01 -.794033074665D-08
    -.160720980388D-09  .100000000000D+01  .198400000000D+04  .000000000000D+00
     .240000000000D+01  .000000000000D+00  .745058059692D-08  .290000000000D+02
     .504546000000D+06  .400000000000D+01
21 18  1 19 21 59 44.0 -.439940486103D-03  .420641299570D-11  .000000000000D+00
     .240000000000D+02 -.112125000000D+03  .480841457548D-08  .180114408381D+01
    -.631809234619D-05  .243080069777D-01  .416859984398D-05  .515378495407D+04
     .511184000000D+06  .298023223877D-06 -.420381917086D+00 -.502914190292D-06
     .942633716226D+00  .289062500000D+03 -.160597320581D+01 -.821248494010D-08
    -.266082511976D-09  .100000000000D+01  .198400000000D+04  .000000000000D+00
     .240000000000D+01  .000000000000D+00 -.102445483208D-07  .240000000000D+02
     .506706000000D+06  .400000000000D+01
 4 18  1 19 21 59 44.0  .332118943334D-04  .216004991671D-11  .000000000000D+00
     .160000000000D+02  .840937500000D+02  .521450291926D-08  .642134938218D+00
     .458955764771D-05  .941100751515D-02  .104028731585D-04  .515367484856D+04
     .511184000000D+06 -.633299350739D-07 -.244229174835D+01  .800937414169D-07
     .980460738640D+00  .189156250000D+03  .891303959942D+00 -.782925469131D-08
    -.146434671020D-09  .100000000000D+01  .198400000000D+04  .000000000000D+00
     .240000000000D+01  .630000000000D+02 -.195577740669D-07  .160000000000D+02
     .507936000000D+06  .400000000000D+01
 4 18  1 19 23 59 44.0  .332272611558D-04  .216004991671D-11  .000000000000D+00
     .170000000000D+02  .747187500000D+02  .517128683343D-08  .169217917049D+01
     .389665365219D-05  .941140111536D-02  .106990337372D-04  .515367743874D+04
     .518384000000D+06 -.242143869400D-06 -.244234858418D+01 -.279396772385D-07
     .980460317319D+00  .185687500000D+03  .891444650236D+00 -.771532137410D-08
    -.307155651409D-10  .100000000000D+01  .198400000000D+04  .000000000000D+00
     .240000000000D+01  .630000000000D+02 -.195577740669D-07  .170000000000D+02
     .511206000000D+06  .400000000000D+01
